{
    "links": {
        "self": "http://www.neowsapp.com/rest/v1/neo/3297627?api_key=iIulBulltgU6a56xZRHN4H3l9WmuAYTsLGpBGhQ2"
    },
    "id": "3297627",
    "neo_reference_id": "3297627",
    "name": "(2005 VO)",
    "designation": "2005 VO",
    "nasa_jpl_url": "http://ssd.jpl.nasa.gov/sbdb.cgi?sstr=3297627",
    "absolute_magnitude_h": 27.9,
    "estimated_diameter": {
        "kilometers": {
            "estimated_diameter_min": 0.0069912523,
            "estimated_diameter_max": 0.0156329154
        },
        "meters": {
            "estimated_diameter_min": 6.9912523225,
            "estimated_diameter_max": 15.6329154409
        },
        "miles": {
            "estimated_diameter_min": 0.0043441614,
            "estimated_diameter_max": 0.0097138403
        },
        "feet": {
            "estimated_diameter_min": 22.9371802696,
            "estimated_diameter_max": 51.289094295
        }
    },
    "is_potentially_hazardous_asteroid": false,
    "close_approach_data": [
        {
            "close_approach_date": "2005-11-05",
            "close_approach_date_full": "2005-Nov-05 19:11",
            "epoch_date_close_approach": 1131217860000,
            "relative_velocity": {
                "kilometers_per_second": "14.3554082637",
                "kilometers_per_hour": "51679.4697492026",
                "miles_per_hour": "32111.6127449976"
            },
            "miss_distance": {
                "astronomical": "0.0054528851",
                "lunar": "2.1211723039",
                "kilometers": "815739.996314737",
                "miles": "506877.3294958906"
            },
            "orbiting_body": "Earth"
        },
        {
            "close_approach_date": "2005-11-05",
            "close_approach_date_full": "2005-Nov-05 21:53",
            "epoch_date_close_approach": 1131227580000,
            "relative_velocity": {
                "kilometers_per_second": "15.3518262844",
                "kilometers_per_hour": "55266.5746237644",
                "miles_per_hour": "34340.5002155274"
            },
            "miss_distance": {
                "astronomical": "0.0034019426",
                "lunar": "1.3233556714",
                "kilometers": "508923.366822262",
                "miles": "316230.3163487356"
            },
            "orbiting_body": "Moon"
        }
    ],
    "orbital_data": {
        "orbit_id": "7",
        "orbit_determination_date": "2017-04-06 09:09:59",
        "first_observation_date": "2005-11-03",
        "last_observation_date": "2005-11-04",
        "data_arc_in_days": 1,
        "observations_used": 24,
        "orbit_uncertainty": "8",
        "minimum_orbit_intersection": ".00246746",
        "jupiter_tisserand_invariant": "3.166",
        "epoch_osculation": "2453678.5",
        "eccentricity": ".6632199231601129",
        "semi_major_axis": "2.427869023249532",
        "inclination": ".5287890417575961",
        "ascending_node_longitude": "207.1832327310273",
        "orbital_period": "1381.771745457173",
        "perihelion_distance": ".817657916207159",
        "perihelion_argument": "251.6076865782138",
        "aphelion_distance": "4.038080130291905",
        "perihelion_time": "2453717.283910844485",
        "mean_anomaly": "349.8954310290987",
        "mean_motion": ".2605350711386057",
        "equinox": "J2000",
        "orbit_class": {
            "orbit_class_type": "APO",
            "orbit_class_description": "Near-Earth asteroid orbits which cross the Earth’s orbit similar to that of 1862 Apollo",
            "orbit_class_range": "a (semi-major axis) > 1.0 AU; q (perihelion) < 1.017 AU"
        }
    },
    "is_sentry_object": false
}